CCSDS_OMM_VERS = 2.0
CREATION_DATE  = 
ORIGINATOR     = 

OBJECT_NAME    = PROGRESS-MS 32
OBJECT_ID      = 2025-204A
CENTER_NAME    = EARTH
REF_FRAME      = TEME
TIME_SYSTEM    = UTC
MEAN_ELEMENT_THEORY = SGP/SGP4

EPOCH          = 2025-12-06T20:46:13.238400
MEAN_MOTION    = 15.49374779
ECCENTRICITY   = .00034973
INCLINATION    = 51.6304
RA_OF_ASC_NODE = 171.5636
ARG_OF_PERICENTER = 213.1314
MEAN_ANOMALY   = 146.9456

EPHEMERIS_TYPE = 0
CLASSIFICATION_TYPE = U
NORAD_CAT_ID   = 65586
ELEMENT_SET_NO = 999
REV_AT_EPOCH   = 27
BSTAR          = .25393652E-3
MEAN_MOTION_DOT = .1375E-3
MEAN_MOTION_DDOT = 0

CCSDS_OMM_VERS = 2.0
CREATION_DATE  = 
ORIGINATOR     = 

OBJECT_NAME    = CYGNUS NG-23
OBJECT_ID      = 2025-208A
CENTER_NAME    = EARTH
REF_FRAME      = TEME
TIME_SYSTEM    = UTC
MEAN_ELEMENT_THEORY = SGP/SGP4

EPOCH          = 2025-12-06T20:46:13.238400
MEAN_MOTION    = 15.49374779
ECCENTRICITY   = .00034973
INCLINATION    = 51.6304
RA_OF_ASC_NODE = 171.5636
ARG_OF_PERICENTER = 213.1314
MEAN_ANOMALY   = 146.9456

EPHEMERIS_TYPE = 0
CLASSIFICATION_TYPE = U
NORAD_CAT_ID   = 65616
ELEMENT_SET_NO = 999
REV_AT_EPOCH   = 22
BSTAR          = .25393652E-3
MEAN_MOTION_DOT = .1375E-3
MEAN_MOTION_DDOT = 0

CCSDS_OMM_VERS = 2.0
CREATION_DATE  = 
ORIGINATOR     = 

OBJECT_NAME    = DRAGONFLY
OBJECT_ID      = 1998-067XH
CENTER_NAME    = EARTH
REF_FRAME      = TEME
TIME_SYSTEM    = UTC
MEAN_ELEMENT_THEORY = SGP/SGP4

EPOCH          = 2025-12-06T18:11:12.021792
MEAN_MOTION    = 15.69539731
ECCENTRICITY   = .00064636
INCLINATION    = 51.6244
RA_OF_ASC_NODE = 166.3400
ARG_OF_PERICENTER = 240.1975
MEAN_ANOMALY   = 119.8380

EPHEMERIS_TYPE = 0
CLASSIFICATION_TYPE = U
NORAD_CAT_ID   = 65729
ELEMENT_SET_NO = 999
REV_AT_EPOCH   = 1222
BSTAR          = .16006166E-2
MEAN_MOTION_DOT = .197078E-2
MEAN_MOTION_DDOT = 0

CCSDS_OMM_VERS = 2.0
CREATION_DATE  = 
ORIGINATOR     = 

OBJECT_NAME    = 1998-067XK
OBJECT_ID      = 1998-067XK
CENTER_NAME    = EARTH
REF_FRAME      = TEME
TIME_SYSTEM    = UTC
MEAN_ELEMENT_THEORY = SGP/SGP4

EPOCH          = 2025-12-06T19:05:46.784832
MEAN_MOTION    = 15.64317080
ECCENTRICITY   = .00056148
INCLINATION    = 51.6275
RA_OF_ASC_NODE = 167.3560
ARG_OF_PERICENTER = 209.7044
MEAN_ANOMALY   = 150.3633

EPHEMERIS_TYPE = 0
CLASSIFICATION_TYPE = U
NORAD_CAT_ID   = 65731
ELEMENT_SET_NO = 999
REV_AT_EPOCH   = 1221
BSTAR          = .1226721E-2
MEAN_MOTION_DOT = .120927E-2
MEAN_MOTION_DDOT = 0

CCSDS_OMM_VERS = 2.0
CREATION_DATE  = 
ORIGINATOR     = 

OBJECT_NAME    = RSP-03
OBJECT_ID      = 1998-067XL
CENTER_NAME    = EARTH
REF_FRAME      = TEME
TIME_SYSTEM    = UTC
MEAN_ELEMENT_THEORY = SGP/SGP4

EPOCH          = 2025-12-06T19:27:20.778624
MEAN_MOTION    = 15.66782346
ECCENTRICITY   = .00064361
INCLINATION    = 51.6255
RA_OF_ASC_NODE = 166.6987
ARG_OF_PERICENTER = 212.9717
MEAN_ANOMALY   = 147.0878

EPHEMERIS_TYPE = 0
CLASSIFICATION_TYPE = U
NORAD_CAT_ID   = 65732
ELEMENT_SET_NO = 999
REV_AT_EPOCH   = 1223
BSTAR          = .14177456E-2
MEAN_MOTION_DOT = .155052E-2
MEAN_MOTION_DDOT = 0

CCSDS_OMM_VERS = 2.0
CREATION_DATE  = 
ORIGINATOR     = 

OBJECT_NAME    = GHS-01
OBJECT_ID      = 1998-067XM
CENTER_NAME    = EARTH
REF_FRAME      = TEME
TIME_SYSTEM    = UTC
MEAN_ELEMENT_THEORY = SGP/SGP4

EPOCH          = 2025-12-06T18:47:20.289408
MEAN_MOTION    = 15.71874043
ECCENTRICITY   = .00068988
INCLINATION    = 51.6272
RA_OF_ASC_NODE = 165.7632
ARG_OF_PERICENTER = 241.1920
MEAN_ANOMALY   = 118.8385

EPHEMERIS_TYPE = 0
CLASSIFICATION_TYPE = U
NORAD_CAT_ID   = 65733
ELEMENT_SET_NO = 999
REV_AT_EPOCH   = 1224
BSTAR          = .174144E-2
MEAN_MOTION_DOT = .237688E-2
MEAN_MOTION_DDOT = 0

CCSDS_OMM_VERS = 2.0
CREATION_DATE  = 
ORIGINATOR     = 

OBJECT_NAME    = YOTSUBA-KULOVER
OBJECT_ID      = 1998-067XN
CENTER_NAME    = EARTH
REF_FRAME      = TEME
TIME_SYSTEM    = UTC
MEAN_ELEMENT_THEORY = SGP/SGP4

EPOCH          = 2025-12-06T19:33:42.622560
MEAN_MOTION    = 15.58441577
ECCENTRICITY   = .00019681
INCLINATION    = 51.6278
RA_OF_ASC_NODE = 169.7328
ARG_OF_PERICENTER = 197.1439
MEAN_ANOMALY   = 162.9487

EPHEMERIS_TYPE = 0
CLASSIFICATION_TYPE = U
NORAD_CAT_ID   = 65941
ELEMENT_SET_NO = 999
REV_AT_EPOCH   = 893
BSTAR          = .11638994E-2
MEAN_MOTION_DOT = .90951E-3
MEAN_MOTION_DDOT = 0

CCSDS_OMM_VERS = 2.0
CREATION_DATE  = 
ORIGINATOR     = 

OBJECT_NAME    = BOTAN
OBJECT_ID      = 1998-067XP
CENTER_NAME    = EARTH
REF_FRAME      = TEME
TIME_SYSTEM    = UTC
MEAN_ELEMENT_THEORY = SGP/SGP4

EPOCH          = 2025-12-06T18:26:46.199328
MEAN_MOTION    = 15.61316825
ECCENTRICITY   = .00039822
INCLINATION    = 51.6270
RA_OF_ASC_NODE = 169.4226
ARG_OF_PERICENTER = 191.5132
MEAN_ANOMALY   = 168.5771

EPHEMERIS_TYPE = 0
CLASSIFICATION_TYPE = U
NORAD_CAT_ID   = 65942
ELEMENT_SET_NO = 999
REV_AT_EPOCH   = 893
BSTAR          = .1480583E-2
MEAN_MOTION_DOT = .129965E-2
MEAN_MOTION_DDOT = 0

CCSDS_OMM_VERS = 2.0
CREATION_DATE  = 
ORIGINATOR     = 

OBJECT_NAME    = E-KAGAKU-1
OBJECT_ID      = 1998-067XQ
CENTER_NAME    = EARTH
REF_FRAME      = TEME
TIME_SYSTEM    = UTC
MEAN_ELEMENT_THEORY = SGP/SGP4

EPOCH          = 2025-12-06T18:01:16.505472
MEAN_MOTION    = 15.58389180
ECCENTRICITY   = .00030246
INCLINATION    = 51.6289
RA_OF_ASC_NODE = 170.0575
ARG_OF_PERICENTER = 170.5434
MEAN_ANOMALY   = 189.5616

EPHEMERIS_TYPE = 0
CLASSIFICATION_TYPE = U
NORAD_CAT_ID   = 65943
ELEMENT_SET_NO = 999
REV_AT_EPOCH   = 892
BSTAR          = .11230983E-2
MEAN_MOTION_DOT = .87541E-3
MEAN_MOTION_DDOT = 0

CCSDS_OMM_VERS = 2.0
CREATION_DATE  = 
ORIGINATOR     = 

OBJECT_NAME    = HRC MONOBLOCK CAMERA
OBJECT_ID      = 1998-067XR
CENTER_NAME    = EARTH
REF_FRAME      = TEME
TIME_SYSTEM    = UTC
MEAN_ELEMENT_THEORY = SGP/SGP4

EPOCH          = 2025-12-06T22:15:10.603584
MEAN_MOTION    = 15.53573464
ECCENTRICITY   = .00040212
INCLINATION    = 51.6285
RA_OF_ASC_NODE = 170.4765
ARG_OF_PERICENTER = 160.7333
MEAN_ANOMALY   = 199.3810

EPHEMERIS_TYPE = 0
CLASSIFICATION_TYPE = U
NORAD_CAT_ID   = 66052
ELEMENT_SET_NO = 999
REV_AT_EPOCH   = 793
BSTAR          = .71615141E-3
MEAN_MOTION_DOT = .46263E-3
MEAN_MOTION_DDOT = 0

CCSDS_OMM_VERS = 2.0
CREATION_DATE  = 
ORIGINATOR     = 

OBJECT_NAME    = HTV-X1
OBJECT_ID      = 2025-241A
CENTER_NAME    = EARTH
REF_FRAME      = TEME
TIME_SYSTEM    = UTC
MEAN_ELEMENT_THEORY = SGP/SGP4

EPOCH          = 2025-12-06T20:46:13.238400
MEAN_MOTION    = 15.49374779
ECCENTRICITY   = .00034973
INCLINATION    = 51.6304
RA_OF_ASC_NODE = 171.5636
ARG_OF_PERICENTER = 213.1314
MEAN_ANOMALY   = 146.9456

EPHEMERIS_TYPE = 0
CLASSIFICATION_TYPE = U
NORAD_CAT_ID   = 66174
ELEMENT_SET_NO = 999
REV_AT_EPOCH   = 51
BSTAR          = .25393652E-3
MEAN_MOTION_DOT = .1375E-3
MEAN_MOTION_DDOT = 0

CCSDS_OMM_VERS = 2.0
CREATION_DATE  = 
ORIGINATOR     = 

OBJECT_NAME    = SZ-21 MODULE
OBJECT_ID      = 2025-246C
CENTER_NAME    = EARTH
REF_FRAME      = TEME
TIME_SYSTEM    = UTC
MEAN_ELEMENT_THEORY = SGP/SGP4

EPOCH          = 2025-12-06T21:55:46.522560
MEAN_MOTION    = 15.62073048
ECCENTRICITY   = .00061635
INCLINATION    = 41.4777
RA_OF_ASC_NODE = 51.5754
ARG_OF_PERICENTER = 227.7607
MEAN_ANOMALY   = 132.2710

EPHEMERIS_TYPE = 0
CLASSIFICATION_TYPE = U
NORAD_CAT_ID   = 66515
ELEMENT_SET_NO = 999
REV_AT_EPOCH   = 353
BSTAR          = .38291804E-3
MEAN_MOTION_DOT = .34334E-3
MEAN_MOTION_DDOT = 0

